STARLINK-4205           
1 53174U 22083AU  22278.25001157  .00034461  00000+0  21745-2 0  9995
2 53174  53.2196  32.0367 0001683  58.7348 107.9372 15.08810980 12925
STARLINK-4292           
1 53175U 22083AV  22277.91667824 -.00038060  00000+0 -23861-2 0  9999
2 53175  53.2198  33.5346 0001934  38.6993 136.3644 15.08836732  1304
STARLINK-4294           
1 53176U 22083AW  22278.25001157 -.01060567  00000+0 -10265-1 0  9990
2 53176  53.2171  12.6328 0001157  64.7065   5.3347 15.68470317 13184
STARLINK-4298           
1 53177U 22083AX  22278.25001157 -.00004561  00000+0 -28058-4 0  9994
2 53177  53.2153  12.6001 0005391 313.4023 137.0956 15.73172620 13197
STARLINK-4280           
1 53178U 22083AY  22277.91667824 -.00057211  00000+0 -36044-2 0  9998
2 53178  53.2121  23.5494 0002082  35.5480 174.5420 15.08848020  1307
STARLINK-4276           
1 53179U 22083AZ  22277.91667824 -.00036451  00000+0 -25602-3 0  9991
2 53179  53.2146  14.2394 0004675 325.7734  39.9963 15.73216752  1306
STARLINK-4258           
1 53180U 22083BA  22278.25001157 -.00057373  00000+0 -40725-3 0  9991
2 53180  53.2149  12.5962 0005463 313.1024 136.8564 15.73169039 13191
STARLINK-4273           
1 53181U 22083BB  22278.25001157  .00010642  00000+0  80270-4 0  9998
2 53181  53.2150  12.5951 0004094 336.4734 115.2227 15.73162680 13199
STARLINK-4278           
1 53182U 22083BC  22278.25001157 -.00055441  00000+0 -39328-3 0  9994
2 53182  53.2149  12.5933 0003977 342.2261 108.8694 15.73182013 13195
STARLINK-4268           
1 53183U 22083BD  22278.25001157 -.00004844  00000+0 -30082-4 0  9995
2 53183  53.2148  12.5907 0005091 317.3037 135.5820 15.73172676 13191
STARLINK-4257           
1 53184U 22083BE  22277.91667824  .00024570  00000+0  17915-3 0  9992
2 53184  53.2151  14.2438 0004291 342.1938  22.9827 15.73169229  1307
STARLINK-4391           
1 53189U 22084A   22278.18281034  .00003447  00000+0  27274-3 0  9992
2 53189  97.6569 337.9039 0001657  72.6073 287.5332 15.01271892 11938
STARLINK-4332           
1 53190U 22084B   22278.21267212 -.00000443  00000+0 -29870-4 0  9990
2 53190  97.6540 337.9200 0002043 131.7089 228.4311 15.01262317 11936
STARLINK-4369           
1 53191U 22084C   22278.17724989  .00000563  00000+0  48440-4 0  9990
2 53191  97.6561 337.8909 0001994  87.9762 272.1691 15.01263825 11920
STARLINK-4375           
1 53192U 22084D   22278.17540535 -.00000482  00000+0 -32938-4 0  9991
2 53192  97.6553 337.8911 0002104  97.5652 262.5812 15.01259754 11928
STARLINK-4351           
1 53193U 22084E   22278.18095198  .00001053  00000+0  86546-4 0  9990
2 53193  97.6546 337.9042 0001998  88.0935 272.0517 15.01267839 11938
STARLINK-4382           
1 53194U 22084F   22278.17908726  .00002807  00000+0  22295-3 0  9998
2 53194  97.6569 337.8938 0001775  75.4558 284.6863 15.01280104 11923
STARLINK-4404           
1 53195U 22084G   22278.17863830 -.00001109  00000+0 -83559-4 0  9992
2 53195  97.6558 338.0304 0002087 112.0198 248.1248 15.00445151 11934
STARLINK-4407           
1 53196U 22084H   22278.17564371  .00000340  00000+0  31073-4 0  9999
2 53196  97.6557 337.8909 0001533  81.6632 278.4766 15.01259756 11926
STARLINK-4403           
1 53197U 22084J   22278.16984854  .00000470  00000+0  41209-4 0  9997
2 53197  97.6549 337.8815 0001862  98.2485 261.8950 15.01259766 11921
STARLINK-4385           
1 53198U 22084K   22278.17354889 -.00003319  00000+0 -25397-3 0  9994
2 53198  97.6557 337.8871 0002051  95.6588 264.4870 15.01256971 11924
STARLINK-4395           
1 53199U 22084L   22278.16799167 -.00000230  00000+0 -13335-4 0  9995
2 53199  97.6546 337.8785 0002165 116.0186 244.1262 15.01268083 11922
STARLINK-4417           
1 53200U 22084M   22278.17169058  .00002910  00000+0  23093-3 0  9995
2 53200  97.6528 337.8828 0002847 106.6232 253.5305 15.01273855 11922
STARLINK-4405           
1 53201U 22084N   22278.16429270 -.00003708  00000+0 -28407-3 0  9992
2 53201  97.6556 337.8735 0001687 109.5935 250.5471 15.01280218 11926
STARLINK-4411           
1 53202U 22084P   22278.19690346  .00001885  00000+0  15447-3 0  9992
2 53202  97.6568 338.3019 0001676  83.2604 276.8811 15.00459899 11954
STARLINK-4409           
1 53203U 22084Q   22278.16059318 -.00000869  00000+0 -63098-4 0  9997
2 53203  97.6556 337.8688 0002347 118.2243 241.9218 15.01259457 11922
STARLINK-4410           
1 53204U 22084R   22278.16613919  .00001699  00000+0  13681-3 0  9993
2 53204  97.6563 337.8748 0001862  98.5588 261.5847 15.01264245 11928
STARLINK-4397           
1 53205U 22084S   22278.15688780  .00001690  00000+0  13617-3 0  9991
2 53205  97.6552 337.8657 0002125 125.9088 234.2333 15.01260079 11927
STARLINK-4408           
1 53206U 22084T   22278.16083590 -.00001152  00000+0 -85125-4 0  9990
2 53206  97.6538 337.8688 0001910 112.9404 247.2022 15.01259906 11921
STARLINK-4413           
1 53207U 22084U   22278.15503404 -.00001849  00000+0 -13943-3 0  9992
2 53207  97.6549 337.8626 0001792 118.6386 241.5018 15.01258605 11923
STARLINK-4425           
1 53208U 22084V   22277.42926505  .00001505  00000+0  12173-3 0  9994
2 53208  97.6535 337.1494 0002245 114.5028 245.6431 15.01262962 11438
STARLINK-4423           
1 53209U 22084W   22278.15343683 -.00000199  00000+0 -10915-4 0  9999
2 53209  97.6541 337.8612 0001799 122.1616 237.9783 15.01253763 11923
STARLINK-4427           
1 53210U 22084X   22277.89212433  .00001007  00000+0  82947-4 0  9990
2 53210  97.6539 337.6033 0001586  92.8968 267.2438 15.01268952 12047
STARLINK-4419           
1 53211U 22084Y   22278.14949513  .00004065  00000+0  32086-3 0  9991
2 53211  97.6546 337.8570 0002068 137.4539 222.6846 15.01267658 11926
STARLINK-4416           
1 53212U 22084Z   22278.15318833  .00000804  00000+0  67165-4 0  9992
2 53212  97.6535 337.8617 0001650 126.3026 233.8351 15.01260604 11920
STARLINK-4414           
1 53213U 22084AA  22278.21057832 -.00002416  00000+0 -18359-3 0  9992
2 53213  97.6538 337.9168 0001561 134.6850 225.4502 15.01258625 11930
STARLINK-4353           
1 53214U 22084AB  22278.15132093 -.00000758  00000+0 -54396-4 0  9998
2 53214  97.6536 337.8586 0001544 126.9015 233.2351 15.01261876 11920
STARLINK-4335           
1 53215U 22084AC  22278.14207572 -.00000785  00000+0 -56504-4 0  9996
2 53215  97.6548 337.8522 0002603 140.9565 219.1847 15.01261467 11926
STARLINK-4376           
1 53216U 22084AD  22278.14763655 -.00000524  00000+0 -36178-4 0  9992
2 53216  97.6533 337.8542 0001689 119.7870 240.3522 15.01253797 11922
STARLINK-4379           
1 53217U 22084AE  22278.20527758  .00002945  00000+0  23385-3 0  9994
2 53217  97.6516 337.9102 0002316 125.4675 234.6765 15.01246068 11931
STARLINK-4384           
1 53218U 22084AF  22278.14577152  .00001747  00000+0  14051-3 0  9990
2 53218  97.6538 337.8535 0001950 133.4130 226.7257 15.01266182 11558
STARLINK-4373           
1 53219U 22084AG  22278.13466968 -.00001265  00000+0 -93910-4 0  9991
2 53219  97.6528 337.8421 0001527 125.4776 234.6591 15.01258747 11556
STARLINK-4363           
1 53220U 22084AH  22278.20687700 -.00004247  00000+0 -32619-3 0  9991
2 53220  97.6520 337.9114 0001894 127.4071 232.7326 15.01264048 11564
STARLINK-4377           
1 53221U 22084AJ  22278.19947827 -.00001007  00000+0 -73828-4 0  9998
2 53221  97.6525 337.9117 0001347  99.2620 260.8757 15.01256281 11551
STARLINK-4381           
1 53222U 22084AK  22277.80510605  .00001452  00000+0  11756-3 0  9999
2 53222  97.6555 337.5187 0001429 144.8770 215.2549 15.01269017 11499
STARLINK-4354           
1 53223U 22084AL  22278.13097520  .00001905  00000+0  15288-3 0  9990
2 53223  97.6556 337.8432 0001447  73.8285 286.3099 15.01254030 11543
STARLINK-4356           
1 53224U 22084AM  22277.40333775  .00000550  00000+0  47379-4 0  9997
2 53224  97.6541 337.1219 0001223 141.7741 218.3570 15.01255728 11430
STARLINK-4358           
1 53225U 22084AN  22277.79399690  .00001728  00000+0  13906-3 0  9994
2 53225  97.6537 337.5126 0001574  88.3733 271.7671 15.01267699 11494
STARLINK-4359           
1 53226U 22084AP  22277.59798537  .00001640  00000+0  13220-3 0  9998
2 53226  97.6536 337.3187 0001289 105.2431 254.8936 15.01263742 11464
STARLINK-4366           
1 53227U 22084AQ  22278.19045344  .00001408  00000+0  11415-3 0  9993
2 53227  97.6561 337.9091 0001777  93.7573 266.3854 15.01270721 11555
STARLINK-4365           
1 53228U 22084AR  22278.12911738  .00002388  00000+0  19043-3 0  9999
2 53228  97.6548 337.8419 0001767  99.0335 261.1089 15.01263502 11549
STARLINK-4367           
1 53229U 22084AS  22278.12356051  .00001201  00000+0  98074-4 0  9996
2 53229  97.6555 337.8417 0002067  94.0531 266.0929 15.01261605 11542
STARLINK-4364           
1 53230U 22084AT  22278.19206485 -.00001022  00000+0 -74986-4 0  9999
2 53230  97.6532 337.9058 0002006  95.0003 265.1450 15.01261246 11932
STARLINK-4370           
1 53231U 22084AU  22277.78659439  .00000788  00000+0  65884-4 0  9998
2 53231  97.6568 337.5096 0001811  74.3308 285.8116 15.01272198 11498
STARLINK-4371           
1 53232U 22084AV  22278.18836459  .00001384  00000+0  11229-3 0  9999
2 53232  97.6567 337.9084 0001709  85.5410 274.6009 15.01260895 11558
STARLINK-4372           
1 53233U 22084AW  22278.18325961 -.00005122  00000+0 -40298-3 0  9995
2 53233  97.6543 337.9026 0001995  80.6655 279.4794 15.00446831 11552
STARLINK-4368           
1 53234U 22084AX  22278.18306121 -.00001084  00000+0 -79824-4 0  9994
2 53234  97.6574 337.9067 0001499  91.1249 269.0147 15.01254203 11566
STARLINK-4056           
1 53242U 22086A   22277.91667824 -.00003956  00000+0 -23061-3 0  9996
2 53242  53.2172  58.5533 0001483  61.0158  31.3355 15.08833481  1309
STARLINK-4047           
1 53243U 22086B   22277.91667824  .00042668  00000+0  26854-2 0  9990
2 53243  53.2143  63.5424 0001660  49.9414  40.1322 15.08804832  1300
STARLINK-4125           
1 53244U 22086C   22278.25001157  .00014106  00000+0  90306-3 0  9990
2 53244  53.2161  62.0491 0001755  49.3620 112.2850 15.08819986 11817
